{"fetched_at":"2026-03-30T06:02:59Z","count":15439,"tles":[{"name":"STARLINK-30867","line1":"1 58231U 23171B   26087.68733293  .00000683  00000+0  34354-4 0  9996","line2":"2 58231  43.0027 177.6290 0001828 265.0746  94.9897 15.27570763132643","category":"Starlink"}]}