{
  "norad_id": 58231,
  "name": "STARLINK-30867",
  "history": [
    {
      "epoch": "2026-03-28T16:29:45.565152",
      "apogee_km": 484.3309849544494,
      "perigee_km": 481.8225252055918,
      "latitude_deg": 19.608034255991402,
      "longitude_deg": 69.0839612800628,
      "semi_major_axis_km": 6861.213755080021,
      "eccentricity": 0.0001828,
      "inclination_deg": 43.0027,
      "raan_deg": 177.629,
      "arg_perigee_deg": 265.0746,
      "mean_anomaly_deg": 94.9897,
      "mean_motion_rev_day": 15.27570763
    }
  ]
}